P/2012 S2 (La Sagra),e,8.6102,51.9266,312.2478,4.404770,0.1066152,0.69245819,127.1805,11/24.0/2015,2000,g 17.0,4.0
# From MPC 88327
C/2012 S3 (PANSTARRS),e,112.9354,121.3011,183.6947,37543,0.0000001,0.99993854,0.0000,08/30.8202/2013,2000,g 10.0,4.0
# From MPC 88327
C/2012 S4 (PANSTARRS),h,06/27.9275/2013,126.5602,173.1183,163.5891,1.000379,4.346401,2000,8.5,4.0
# From MPC 82720
P/2012 SB6 (Lemmon),e,11.0574,9.1210,12.3113,3.892492,0.1283401,0.38968729,143.4313,11/24.0/2015,2000,g 14.0,4.0
# From MPC 88694
P/2012 T1 (PANSTARRS),e,11.0575,85.7277,300.0074,3.148892,0.1763874,0.23727403,206.4973,11/24.0/2015,2000,g 15.0,4.0
# From MPC 82320
P/2012 T2 (PANSTARRS),e,12.5554,73.7484,310.9443,5.746419,0.0715498,0.16077452,67.4196,11/24.0/2015,2000,g 10.0,4.0
# From MPC 80900
P/2012 T3 (PANSTARRS),e,9.5434,114.4055,195.5129,6.165832,0.0643749,0.61470047,84.2647,11/24.0/2015,2000,g 15.0,4.0
# From MPC 84023
C/2012 T4 (McNaught),e,24.1008,99.4249,219.8722,120.4554,0.0007455,0.98376808,0.0000,10/10.4216/2012,2000,g 13.5,4.0
# From MPC 84023
C/2012 T5 (Bressi),h,02/24.0840/2013,72.1738,230.4145,318.1284,1.000363,0.322431,2000,13.0,4.0
# From MPC 82720
C/2012 T6 (Kowalski),e,33.3209,186.1288,198.0277,14.14013,0.0185363,0.87455461,21.9831,11/24.0/2015,2000,g 15.0,4.0
# From MPC 87914
P/2012 TK8 (Tenagra),e,6.2830,289.5160,126.8862,4.174102,0.1155738,0.26547487,107.8374,11/24.0/2015,2000,g 13.0,4.0
# From MPC 95208
C/2012 U1 (PANSTARRS),e,56.3404,26.9761,70.1331,6056,0.0000021,0.99913052,0.0000,07/05.3289/2014,2000,g  7.5,4.0
# From MPC 82720
P/2012 U2 (PANSTARRS),e,10.7017,185.2765,229.0119,7.201756,0.0509972,0.50170771,55.9779,11/24.0/2015,2000,g 12.5,4.0
# From MPC 84024
P/2012 US27 (Siding Spring),e,39.2886,49.1931,1.2051,5.172573,0.0837807,0.64787810,85.3838,11/24.0/2015,2000,g 13.5,4.0
# From MPC 84932
C/2012 V1 (PANSTARRS),e,157.8388,85.3673,123.2406,3016,0.0000059,0.99930789,0.0000,07/21.2800/2013,2000,g 12.0,4.0
# From MPC 88695
C/2012 V2 (LINEAR),e,67.1631,262.1754,217.3616,729.1846,0.0000501,0.99800212,0.0000,08/16.4952/2013,2000,g  9.0,4.0
# From MPC 82721
P/2012 WA34 (Lemmon-PANSTARRS),e,6.1200,94.5138,352.8593,4.785891,0.0941369,0.33696994,97.4710,11/24.0/2015,2000,g 13.5,4.0
# From MPC 96277
C/2012 X1 (LINEAR),e,44.3622,113.1309,132.0897,157.5679,0.0004983,0.98985982,0.0000,02/21.6821/2014,2000,g  4.8,3.6
# From MPC 88327
C/2012 X2 (PANSTARRS),e,34.1221,271.0338,215.7364,20.61352,0.0105312,0.76943608,10.1855,11/24.0/2015,2000,g  9.0,4.0
# From MPC 83521
C/2012 Y1 (LINEAR),e,20.9246,193.1916,268.9977,37.97284,0.0042121,0.94675267,4.3807,11/24.0/2015,2000,g 15.0,4.0
# From MPC 83521
C/2012 Y3 (McNaught),e,73.4506,122.6571,235.7150,27.99390,0.0066544,0.93664413,7.9044,11/24.0/2015,2000,g 11.0,4.0
# From MPEC 2015-W63
C/2013 A1 (Siding Spring),h,10/25.2563/2014,129.0399,300.9852,2.4332,1.000214,1.399205,2000,8.2,2.4
# From MPC 84024
P/2013 A2 (Scotti),e,3.3656,355.8008,134.6785,4.005626,0.1229415,0.45573301,125.3322,11/24.0/2015,2000,g 15.5,4.0
# From MPC 82721
P/2013 AL76 (Catalina),e,144.8642,145.9497,27.2721,6.503980,0.0594204,0.68489618,63.9035,11/24.0/2015,2000,g 16.0,4.0
# From MPC 87915
C/2013 B2 (Catalina),h,07/01.5325/2013,43.4616,331.9521,156.5016,1.001496,3.737279,2000,11.0,4.0
# From MPC 95209
C/2013 C2 (Tenagra),e,21.3386,247.5264,308.8125,16.06494,0.0153068,0.43161619,1.3036,11/24.0/2015,2000,g  4.0,4.0
# From MPC 86642
P/2013 CU129 (PANSTARRS),e,12.1518,46.2139,211.9357,2.877500,0.2019208,0.72217716,169.4420,11/24.0/2015,2000,g 18.0,2.0
# From MPC 84024
C/2013 D1 (Holvorcem),e,10.0906,294.9668,252.6919,11.27696,0.0260265,0.78179243,24.8277,11/24.0/2015,2000,g 14.0,4.0
# From MPC 90270
C/2013 E1 (McNaught),e,158.7153,134.0357,311.6160,17115,0.0000004,0.99954486,0.0000,06/14.3333/2013,2000,g  5.5,4.0
# From MPC 88327
C/2013 E2 (Iwamoto),e,21.8713,182.5023,95.7112,217.5461,0.0003072,0.99351777,0.0000,03/09.0877/2013,2000,g 11.5,4.0
# From MPC 88695
P/2013 EW90 (Tenagra),e,31.8070,160.3343,346.4013,4.111138,0.1182391,0.19627285,134.3659,11/24.0/2015,2000,g 12.0,4.0
# From MPC 84626
C/2013 F1 (Boattini),h,12/02.4209/2012,79.6155,30.0845,92.0184,1.002611,1.861061,2000,13.0,4.0
# From MPC 88695
C/2013 F2 (Catalina),e,61.7773,344.2679,123.1110,1584,0.0000156,0.99607046,0.0000,04/19.3424/2013,2000,g  7.0,4.0
# From MPC 84933
C/2013 F3 (McNaught),e,85.4621,266.0855,18.7199,579.6356,0.0000706,0.99611459,0.0000,05/24.9904/2013,2000,g 12.0,4.0
# From MPC 91612
P/2013 G1 (Kowalski),e,5.4701,221.4532,51.2025,6.876289,0.0546604,0.51261093,38.9869,11/24.0/2015,2000,g 11.0,4.0
# From MPC 84933
C/2013 G2 (McNaught),h,12/06.4347/2012,95.9766,274.0800,293.8409,1.000163,2.150677,2000,11.5,4.0
# From MPEC 2015-W63
C/2013 G3 (PANSTARRS),h,11/15.2290/2014,64.6726,208.1153,76.5061,1.000787,3.852194,2000,9.0,4.0
# From MPC 84025
P/2013 G4 (PANSTARRS),e,5.9252,339.7414,214.5526,4.434799,0.1055342,0.41089872,107.2729,11/24.0/2015,2000,g 15.0,4.0
# From MPC 84318
C/2013 G5 (Catalina),e,40.6040,144.2309,165.6777,15262,0.0000005,0.99993915,0.0000,09/01.2357/2013,2000,g 14.0,4.0
# From MPC 87478
C/2013 G6 (Lemmon),e,124.0988,44.5647,215.7197,358.1432,0.0001454,0.99427546,0.0000,07/25.0912/2013,2000,g 13.5,4.0
# From MPC 95209
C/2013 G7 (McNaught),e,105.0996,48.3826,218.2841,1517,0.0000167,0.99691537,0.0000,03/18.7920/2014,2000,g  7.5,4.0
# From MPC 95209
C/2013 G8 (PANSTARRS),e,27.6235,240.9911,80.1345,1853,0.0000124,0.99722605,0.0000,11/14.4533/2013,2000,g  8.5,4.0
# From MPC 95209
C/2013 G9 (Tenagra),h,01/15.2280/2015,146.2470,35.7223,205.0296,1.000961,5.338373,2000,7.0,4.0
# From MPC 84933
C/2013 H1 (La Sagra),e,27.0795,84.9382,136.5981,190.6879,0.0003743,0.98612484,0.0000,05/19.8656/2013,2000,g 13.0,4.0
# From MPC 94670
C/2013 H2 (Boattini),e,128.3890,262.7288,35.9871,12390,0.0000007,0.99939471,0.0000,01/22.9921/2014,2000,g  6.5,4.0
# From MPC 91613
P/2013 J2 (McNaught),e,15.4955,289.3943,37.8888,6.237907,0.0632624,0.65549301,52.0837,11/24.0/2015,2000,g 13.0,4.0
# From MPC 87916
C/2013 J3 (McNaught),e,118.2081,200.7505,320.9533,1123,0.0000262,0.99644656,0.0000,02/22.3556/2013,2000,g 10.0,4.0
# From MPC 87066
P/2013 J4 (PANSTARRS),e,5.0352,84.0011,118.7706,2.475100,0.2531133,0.23099371,359.9443,11/04.0/2013,2000,g 14.0,4.0
# From MPC 84319
C/2013 J5 (Boattini),e,136.0085,256.7497,19.1275,1470,0.0000175,0.99666295,0.0000,11/29.1399/2012,2000,g 10.0,4.0
# From MPC 84627
C/2013 J6 (Catalina),e,85.0224,68.3863,125.6126,59.63336,0.0021403,0.95951062,2.0514,11/24.0/2015,2000,g 14.5,4.0
# From MPC 84319
C/2013 K1 (Christensen),e,42.3511,125.8900,171.3121,76.97681,0.0014594,0.98768924,0.0000,05/29.9787/2013,2000,g 18.0,4.0
# From MPC 87916
C/2013 L2 (Catalina),e,106.7761,285.8553,1.8234,5867,0.0000022,0.99917040,0.0000,05/10.1140/2012,2000,g  8.0,4.0
# From MPC 86229
P/2013 N3 (PANSTARRS),e,2.1708,17.6752,323.9104,7.412293,0.0488399,0.59142811,31.7700,11/24.0/2015,2000,g 13.0,4.0
# From MPC 88328
C/2013 N4 (Borisov),e,37.0349,322.5905,142.3554,48.01162,0.0029627,0.97473803,0.0000,08/21.3483/2013,2000,g 12.0,4.0
# From MPC 85834
P/2013 N5 (PANSTARRS),e,23.3362,187.2497,176.9593,6.823043,0.0553015,0.73111939,48.4152,11/24.0/2015,2000,g 17.0,4.0
# From MPC 87479
P/2013 O2 (PANSTARRS),e,13.3280,207.5583,213.5824,3.820468,0.1319864,0.43975674,93.4520,11/24.0/2015,2000,g 14.0,4.0
# From MPC 90767
C/2013 O3 (McNaught),e,102.8310,276.7346,337.9045,718.9281,0.0000511,0.99557895,0.0000,09/09.7135/2013,2000,g 11.5,4.0
# From MPC 85834
P/2013 P1 (PANSTARRS),e,18.7073,160.8053,137.9591,8.567047,0.0393059,0.60473060,39.3642,11/24.0/2015,2000,g 12.0,4.0
# From MPC 93584
C/2013 P2 (PANSTARRS),e,125.5983,2.0522,105.0075,1327,0.0000204,0.99786290,0.0000,02/16.8101/2014,2000,g 11.5,4.0
# From MPEC 2015-W63
C/2013 P3 (Palomar),h,11/23.2307/2014,93.9203,177.2765,177.1506,1.001183,8.646051,2000,5.5,4.0
# From MPEC 2015-W63
C/2013 P4 (PANSTARRS),e,4.2659,256.5918,113.5414,14.72702,0.0174394,0.59485327,8.1817,11/24.0/2015,2000,g  7.5,4.0
# From MPC 88696
C/2013 PE67 (Catalina-Spacewatch),e,116.6816,325.9494,59.9482,53.15309,0.0025434,0.96477490,1.8230,11/24.0/2015,2000,g 14.0,4.0
# From MPC 94279
C/2013 R1 (Lovejoy),e,63.9964,70.6912,67.1839,536.3597,0.0000793,0.99848623,0.0000,12/22.7594/2013,2000,g  7.0,4.0
# From MPC 94671
P/2013 R3 (Catalina-PANSTARRS),e,0.8916,342.8137,9.0264,3.043630,0.1856164,0.27286027,155.4686,11/24.0/2015,2000,g 14.0,4.0
# From unp
P/2013 R3-A (Catalina-PANSTARRS),e,0.8909,342.7815,9.0654,3.043491,0.1856291,0.27282561,155.4755,11/24.0/2015,2000,g  9.0,4.0
# From MPEC 2015-M77
P/2013 R3-B (Catalina-PANSTARRS),e,0.8922,342.8356,9.0007,3.043705,0.1856096,0.27287761,155.4651,11/24.0/2015,2000,g  9.0,4.0
# From MPC 86230
C/2013 S1 (Catalina),e,83.9625,221.5628,166.0536,9018,0.0000012,0.99968683,0.0000,08/02.7815/2013,2000,g 13.0,4.0
# From MPC 85835
P/2013 T1 (PANSTARRS),e,24.2136,10.1617,346.1423,5.876279,0.0691911,0.62254908,58.5403,11/24.0/2015,2000,g 16.5,4.0
# From MPC 86643
P/2013 T2 (Schwartz),e,9.5707,1.2176,345.2555,3.439127,0.1545368,0.52190192,137.0603,11/24.0/2015,2000,g 16.0,4.0
# From MPC 94671
C/2013 TW5 (Spacewatch),e,31.4075,319.7021,190.4599,321.0103,0.0001714,0.98183264,0.0000,08/18.2531/2014,2000,g  7.5,4.0
# From MPC 88696
P/2013 TL117 (Lemmon),e,9.3645,3.3348,112.2579,3.605331,0.1439748,0.68971788,92.6943,11/24.0/2015,2000,g 17.5,4.0
# From MPC 86643
C/2013 U1 (Catalina),e,23.9401,211.2349,143.1840,11.92045,0.0239478,0.79694672,17.6120,11/24.0/2015,2000,g 13.5,4.0
# From MPC 95209
C/2013 U2 (Holvorcem),e,43.1409,6.9356,107.5415,1185,0.0000241,0.99568164,0.0000,10/26.8680/2014,2000,g  7.5,4.0
# From MPC 94279
C/2013 UQ4 (Catalina),e,145.1601,317.7558,23.5869,61.20001,0.0020586,0.98222564,0.0000,07/05.5968/2014,2000,g 13.5,4.0
# From MPEC 2015-W63
C/2013 US10 (Catalina),h,11/15.7213/2015,148.8784,186.1448,340.3602,1.000315,0.822962,2000,4.4,4.0
# From MPC 95209
C/2013 V1 (Boattini),h,04/21.2259/2014,65.2946,72.8160,48.0532,1.001390,1.661655,2000,10.5,4.0
# From MPC 95209
